IRIDIUM 171             
1 43929U 19002H   24289.59378552  .00001418  00000+0  49925-3 0  9993
2 43929  86.3955 248.5140 0002676  79.7341 280.4157 14.34216354301588
IRIDIUM 170             
1 43930U 19002J   24289.90265109  .00002925  00000+0  45974-3 0  9997
2 43930  86.6073 248.1828 0002274  83.5119 276.6357 14.72262279309613
IRIDIUM 167             
1 43931U 19002K   24289.58744575  .00000350  00000+0  11802-3 0  9994
2 43931  86.3950 248.2945 0002569  84.1168 276.0320 14.34209333301586
IRIDIUM 181             
1 56726U 23068S   24289.78727301  .00000449  00000+0  12691-3 0  9993
2 56726  86.8591 307.8426 0002693  87.7174 272.4336 14.43564461 74533
IRIDIUM 177             
1 56727U 23068T   24289.28564424  .00004015  00000+0  52438-3 0  9990
2 56727  86.1933 258.3095 0002812 101.9307 258.2230 14.80262174 76140
IRIDIUM 174             
1 56728U 23068U   24289.34788110  .00002512  00000+0  32634-3 0  9994
2 56728  86.1945 258.3931 0002812  93.3651 266.7892 14.80319700 76156
IRIDIUM 178             
1 56729U 23068V   24289.20721495  .00001704  00000+0  22080-3 0  9999
2 56729  86.5721 281.6248 0002495  88.3858 271.7649 14.80245300 76131
IRIDIUM 179             
1 56730U 23068W   24289.87780606  .00001525  00000+0  19714-3 0  9994
2 56730  86.6728 286.9976 0002600  97.6349 262.5168 14.80246862 76232
